IRIDIUM 155             
1 43573U 18061E   25094.75549108  .00000033  00000+0  46189-5 0  9995
2 43573  86.3957 239.8365 0001845  90.8247 269.3161 14.34217592350516
IRIDIUM 154             
1 43574U 18061F   25095.15507436  .00000107  00000+0  31192-4 0  9998
2 43574  86.3959 239.7811 0002155  95.6622 264.4820 14.34218297350622
IRIDIUM 163             
1 43575U 18061G   25094.43836165  .00000214  00000+0  69292-4 0  9994
2 43575  86.3955 240.0099 0002157  92.1204 268.0239 14.34217995350495
IRIDIUM 156             
1 43576U 18061H   25094.83160104  .00000243  00000+0  79873-4 0  9990
2 43576  86.3958 239.8526 0001695  93.9902 266.1487 14.34219128350540
IRIDIUM 164             
1 43577U 18061J   25095.16141720  .00000032  00000+0  43624-5 0  9993
2 43577  86.3960 239.7481 0002148 102.6294 257.5142 14.34218084350631
IRIDIUM 159             
1 43578U 18061K   25095.12970368  .00000193  00000+0  61761-4 0  9997
2 43578  86.3958 239.7072 0002276  95.8597 264.2858 14.34217793350596
IRIDIUM 180             
1 43922U 19002A   25094.71059052  .00000457  00000+0  15598-3 0  9997
2 43922  86.4040 176.8536 0002246  93.3704 266.7749 14.34218224326148
IRIDIUM 176             
1 43923U 19002B   25094.76728659  .00003243  00000+0  51033-3 0  9999
2 43923  86.6159 176.8297 0002524  82.0109 278.1394 14.72252827334746
IRIDIUM 168             
1 43924U 19002C   25094.77401423  .00000459  00000+0  15675-3 0  9996
2 43924  86.4043 176.8918 0002217  96.6611 263.4837 14.34217242326138
IRIDIUM 173             
1 43925U 19002D   25095.17994100  .00000516  00000+0  17730-3 0  9999
2 43925  86.4040 176.6301 0002129  91.1496 268.9943 14.34219656326187
IRIDIUM 169             
1 43926U 19002E   25094.77266750  .00000888  00000+0  28371-3 0  9993
2 43926  86.4284 208.3628 0001535  53.8856 306.2485 14.38611277327196
IRIDIUM 172             
1 43927U 19002F   25094.75498911  .00000021  00000+0  37624-6 0  9991
2 43927  86.4040 176.8136 0002546  94.3235 265.8252 14.34217810326129
IRIDIUM 175             
1 43928U 19002G   25094.62617227  .00001552  00000+0  24219-3 0  9994
2 43928  86.1539 133.6075 0001450  93.0035 267.1347 14.72236698334711
IRIDIUM 171             
1 43929U 19002H   25094.73595852  .00000189  00000+0  60535-4 0  9993
2 43929  86.4050 177.0787 0002146 108.4962 251.6467 14.34217583326114
IRIDIUM 170             
1 43930U 19002J   25094.70548929  .00001860  00000+0  29115-3 0  9990
2 43930  86.6163 176.8606 0001877  95.0219 265.1212 14.72241373334748
IRIDIUM 167             
1 43931U 19002K   25094.72961640  .00000023  00000+0  10744-5 0  9992
2 43931  86.4041 176.8429 0001793 104.0065 256.1330 14.34217702326112
IRIDIUM 181             
1 56726U 23068S   25095.15274883  .00001034  00000+0  30130-3 0  9991
2 56726  86.4498 239.7202 0002062 110.5436 249.5987 14.43303058 99252
IRIDIUM 177             
1 56727U 23068T   25094.72334030  .00003277  00000+0  42784-3 0  9994
2 56727  86.2028 176.9766 0002049 106.8147 253.3299 14.80226234101501
IRIDIUM 174             
1 56728U 23068U   25095.05592673  .00003489  00000+0  45530-3 0  9998
2 56728  86.2033 176.9456 0002820  97.4869 262.6672 14.80257143101553
IRIDIUM 178             
1 56729U 23068V   25094.78003405  .00003702  00000+0  48395-3 0  9998
2 56729  86.6606 208.4409 0002254 101.5445 258.6030 14.80213343101514
IRIDIUM 179             
1 56730U 23068W   25094.77478834  .00003739  00000+0  48846-3 0  9992
2 56730  86.6823 216.0959 0002048  83.8457 276.2998 14.80242781101515
